start=new Date('2022-05-19T00:00:00.000Z').valueOf();
sats=[{"MEAN_MOTION":"15.06399259","ELEMENT_SET_NO":"999","SITE":"AFETR","OBJECT_TYPE":"PAYLOAD","GP_ID":"203903710","MEAN_MOTION_DOT":"0.00000959","PERIAPSIS":"546.169","REF_FRAME":"TEME","SEMIMAJOR_AXIS":"6925.351","APOAPSIS":"548.263","LAUNCH_DATE":"2020-08-07","CENTER_NAME":"EARTH","FILE":"3452356","MEAN_ELEMENT_THEORY":"SGP4","REV_AT_EPOCH":"9921","TIME_SYSTEM":"UTC","RCS_SIZE":"LARGE","NORAD_CAT_ID":"46040","ECCENTRICITY":"0.00015120","EPOCH":"2022-05-18T19:37:20.062848","RA_OF_ASC_NODE":"250.4858","ARG_OF_PERICENTER":"65.4725","MEAN_MOTION_DDOT":"0.0000000000000","TLE_LINE2":"2 46040  53.0519 250.4858 0001512  65.4725 294.6422 15.06399259 99218","DECAY_DATE":null,"OBJECT_NAME":"STARLINK-1576","CLASSIFICATION_TYPE":"U","OBJECT_ID":"2020-055P","INCLINATION":"53.0519","BSTAR":"0.00008328400000","EPHEMERIS_TYPE":"0","COUNTRY_CODE":"US","TLE_LINE1":"1 46040U 20055P   22138.81759332  .00000959  00000-0  83284-4 0  9992","PERIOD":"95.592","MEAN_ANOMALY":"294.6422"},{"PERIAPSIS":"545.964","MEAN_MOTION_DOT":"-0.00001927","GP_ID":"203914929","APOAPSIS":"548.322","LAUNCH_DATE":"2020-08-07","SEMIMAJOR_AXIS":"6925.278","REF_FRAME":"TEME","ELEMENT_SET_NO":"999","MEAN_MOTION":"15.06423037","OBJECT_TYPE":"PAYLOAD","SITE":"AFETR","REV_AT_EPOCH":"9877","NORAD_CAT_ID":"46041","RCS_SIZE":"LARGE","TIME_SYSTEM":"UTC","CENTER_NAME":"EARTH","MEAN_ELEMENT_THEORY":"SGP4","FILE":"3452611","MEAN_MOTION_DDOT":"0.0000000000000","TLE_LINE2":"2 46041  53.0551 249.5827 0001703  78.9527 281.1654 15.06423037 98771","OBJECT_NAME":"STARLINK-1580","DECAY_DATE":null,"EPOCH":"2022-05-19T00:27:53.044416","ECCENTRICITY":"0.00017030","ARG_OF_PERICENTER":"78.9527","RA_OF_ASC_NODE":"249.5827","EPHEMERIS_TYPE":"0","MEAN_ANOMALY":"281.1654","TLE_LINE1":"1 46041U 20055Q   22139.01936394 -.00001927  00000-0 -11039-3 0  9997","PERIOD":"95.591","COUNTRY_CODE":"US","INCLINATION":"53.0551","OBJECT_ID":"2020-055Q","CLASSIFICATION_TYPE":"U","BSTAR":"-0.00011039000000"},{"CLASSIFICATION_TYPE":"U","OBJECT_ID":"2020-055R","INCLINATION":"53.0530","BSTAR":"0.00012006000000","EPHEMERIS_TYPE":"0","COUNTRY_CODE":"US","TLE_LINE1":"1 46042U 20055R   22139.00188498  .00001507  00000-0  12006-3 0  9998","PERIOD":"95.592","MEAN_ANOMALY":"296.6775","ECCENTRICITY":"0.00015260","EPOCH":"2022-05-19T00:02:42.862272","RA_OF_ASC_NODE":"249.6567","ARG_OF_PERICENTER":"63.4370","MEAN_MOTION_DDOT":"0.0000000000000","TLE_LINE2":"2 46042  53.0530 249.6567 0001526  63.4370 296.6775 15.06402609 98776","DECAY_DATE":null,"OBJECT_NAME":"STARLINK-1581","CENTER_NAME":"EARTH","FILE":"3452611","MEAN_ELEMENT_THEORY":"SGP4","REV_AT_EPOCH":"9877","TIME_SYSTEM":"UTC","RCS_SIZE":"LARGE","NORAD_CAT_ID":"46042","MEAN_MOTION":"15.06402609","ELEMENT_SET_NO":"999","SITE":"AFETR","OBJECT_TYPE":"PAYLOAD","GP_ID":"203914434","MEAN_MOTION_DOT":"0.00001507","PERIAPSIS":"546.149","REF_FRAME":"TEME","SEMIMAJOR_AXIS":"6925.341","LAUNCH_DATE":"2020-08-07","APOAPSIS":"548.262"},{"RCS_SIZE":"LARGE","TIME_SYSTEM":"UTC","NORAD_CAT_ID":"46043","REV_AT_EPOCH":"9923","FILE":"3452356","MEAN_ELEMENT_THEORY":"SGP4","CENTER_NAME":"EARTH","SEMIMAJOR_AXIS":"6925.313","REF_FRAME":"TEME","APOAPSIS":"548.148","LAUNCH_DATE":"2020-08-07","PERIAPSIS":"546.207","MEAN_MOTION_DOT":"0.00001380","GP_ID":"203902959","SITE":"AFETR","OBJECT_TYPE":"PAYLOAD","MEAN_MOTION":"15.06411735","ELEMENT_SET_NO":"999","PERIOD":"95.591","TLE_LINE1":"1 46043U 20055S   22138.72912210  .00001380  00000-0  11148-3 0  9999","COUNTRY_CODE":"US","MEAN_ANOMALY":"301.8927","EPHEMERIS_TYPE":"0","BSTAR":"0.00011148000000","OBJECT_ID":"2020-055S","CLASSIFICATION_TYPE":"U","INCLINATION":"53.0540","OBJECT_NAME":"STARLINK-1582","DECAY_DATE":null,"MEAN_MOTION_DDOT":"0.0000000000000","TLE_LINE2":"2 46043  53.0540 250.8963 0001401  58.2198 301.8927 15.06411735 99234","RA_OF_ASC_NODE":"250.8963","ARG_OF_PERICENTER":"58.2198","ECCENTRICITY":"0.00014010","EPOCH":"2022-05-18T17:29:56.149440"},{"LAUNCH_DATE":"2020-08-07","APOAPSIS":"548.191","SEMIMAJOR_AXIS":"6925.333","REF_FRAME":"TEME","PERIAPSIS":"546.206","MEAN_MOTION_DOT":"0.00003490","GP_ID":"203903211","OBJECT_TYPE":"PAYLOAD","SITE":"AFETR","ELEMENT_SET_NO":"999","MEAN_MOTION":"15.06405000","NORAD_CAT_ID":"46044","RCS_SIZE":"LARGE","TIME_SYSTEM":"UTC","REV_AT_EPOCH":"9925","MEAN_ELEMENT_THEORY":"SGP4","FILE":"3452356","CENTER_NAME":"EARTH","OBJECT_NAME":"STARLINK-1584","DECAY_DATE":null,"MEAN_MOTION_DDOT":"0.0000000000000","TLE_LINE2":"2 46044  53.0546 250.5181 0001433  85.8952 274.2201 15.06405000 99257","ARG_OF_PERICENTER":"85.8952","RA_OF_ASC_NODE":"250.5181","EPOCH":"2022-05-18T19:26:42.525888","ECCENTRICITY":"0.00014330","MEAN_ANOMALY":"274.2201","PERIOD":"95.592","TLE_LINE1":"1 46044U 20055T   22138.81021442  .00003490  00000-0  25306-3 0  9993","COUNTRY_CODE":"US","EPHEMERIS_TYPE":"0","BSTAR":"0.00025306000000","INCLINATION":"53.0546","OBJECT_ID":"2020-055T","CLASSIFICATION_TYPE":"U"},{"OBJECT_NAME":"STARLINK-1591","DECAY_DATE":null,"TLE_LINE2":"2 46045  53.0575 249.5749 0001679  67.8686 292.2481 15.06389669 98772","MEAN_MOTION_DDOT":"0.0000000000000","RA_OF_ASC_NODE":"249.5749","ARG_OF_PERICENTER":"67.8686","ECCENTRICITY":"0.00016790","EPOCH":"2022-05-19T00:29:16.149120","PERIOD":"95.593","TLE_LINE1":"1 46045U 20055U   22139.02032580  .00000133  00000-0  27838-4 0  9997","COUNTRY_CODE":"US","MEAN_ANOMALY":"292.2481","EPHEMERIS_TYPE":"0","BSTAR":"0.00002783800000","OBJECT_ID":"2020-055U","CLASSIFICATION_TYPE":"U","INCLINATION":"53.0575","SEMIMAJOR_AXIS":"6925.380","REF_FRAME":"TEME","LAUNCH_DATE":"2020-08-07","APOAPSIS":"548.408","PERIAPSIS":"546.082","MEAN_MOTION_DOT":"0.00000133","GP_ID":"203914526","SITE":"AFETR","OBJECT_TYPE":"PAYLOAD","MEAN_MOTION":"15.06389669","ELEMENT_SET_NO":"999","RCS_SIZE":"LARGE","TIME_SYSTEM":"UTC","NORAD_CAT_ID":"46045","REV_AT_EPOCH":"9877","FILE":"3452617","MEAN_ELEMENT_THEORY":"SGP4","CENTER_NAME":"EARTH"},{"SITE":"AFETR","OBJECT_TYPE":"PAYLOAD","MEAN_MOTION":"15.75103569","ELEMENT_SET_NO":"999","SEMIMAJOR_AXIS":"6722.473","REF_FRAME":"TEME","APOAPSIS":"349.450","LAUNCH_DATE":"2020-08-07","MEAN_MOTION_DOT":"0.00146087","PERIAPSIS":"339.227","GP_ID":"203913482","FILE":"3452578","MEAN_ELEMENT_THEORY":"SGP4","CENTER_NAME":"EARTH","RCS_SIZE":"LARGE","TIME_SYSTEM":"UTC","NORAD_CAT_ID":"46046","REV_AT_EPOCH":"10017","RA_OF_ASC_NODE":"150.1056","ARG_OF_PERICENTER":"44.2330","ECCENTRICITY":"0.00076030","EPOCH":"2022-05-19T00:53:17.465280","OBJECT_NAME":"STARLINK-1514","DECAY_DATE":null,"MEAN_MOTION_DDOT":"0.0000000000000","TLE_LINE2":"2 46046  53.0484 150.1056 0007603  44.2330 315.9295 15.75103569100171","BSTAR":"0.00094487000000","OBJECT_ID":"2020-055V","CLASSIFICATION_TYPE":"U","INCLINATION":"53.0484","TLE_LINE1":"1 46046U 20055V   22139.03700770  .00146087  00000-0  94487-3 0  9994","PERIOD":"91.423","COUNTRY_CODE":"US","MEAN_ANOMALY":"315.9295","EPHEMERIS_TYPE":"0"},{"EPHEMERIS_TYPE":"0","COUNTRY_CODE":"US","PERIOD":"95.592","TLE_LINE1":"1 46047U 20055W   22138.64158889  .00001043  00000-0  88847-4 0  9995","MEAN_ANOMALY":"282.9199","CLASSIFICATION_TYPE":"U","OBJECT_ID":"2020-055W","INCLINATION":"53.0572","BSTAR":"0.00008884700000","TLE_LINE2":"2 46047  53.0572 241.2744 0001093  77.1912 282.9199 15.06409796 99363","MEAN_MOTION_DDOT":"0.0000000000000","DECAY_DATE":null,"OBJECT_NAME":"STARLINK-1524","ECCENTRICITY":"0.00010930","EPOCH":"2022-05-18T15:23:53.280096","RA_OF_ASC_NODE":"241.2744","ARG_OF_PERICENTER":"77.1912","REV_AT_EPOCH":"9936","TIME_SYSTEM":"UTC","RCS_SIZE":"LARGE","NORAD_CAT_ID":"46047","CENTER_NAME":"EARTH","FILE":"3452356","MEAN_ELEMENT_THEORY":"SGP4","GP_ID":"203902460","MEAN_MOTION_DOT":"0.00001043","PERIAPSIS":"546.427","REF_FRAME":"TEME","SEMIMAJOR_AXIS":"6925.319","LAUNCH_DATE":"2020-08-07","APOAPSIS":"547.940","MEAN_MOTION":"15.06409796","ELEMENT_SET_NO":"999","SITE":"AFETR","OBJECT_TYPE":"PAYLOAD"},{"DECAY_DATE":null,"OBJECT_NAME":"STARLINK-1527","TLE_LINE2":"2 46048  53.0559 239.8127 0001423  64.7050 295.4087 15.06415533 98909","MEAN_MOTION_DDOT":"0.0000000000000","RA_OF_ASC_NODE":"239.8127","ARG_OF_PERICENTER":"64.7050","ECCENTRICITY":"0.00014230","EPOCH":"2022-05-18T23:16:15.638880","COUNTRY_CODE":"US","PERIOD":"95.591","TLE_LINE1":"1 46048U 20055X   22138.96962545  .00001851  00000-0  14304-3 0  9996","MEAN_ANOMALY":"295.4087","EPHEMERIS_TYPE":"0","BSTAR":"0.00014304000000","CLASSIFICATION_TYPE":"U","OBJECT_ID":"2020-055X","INCLINATION":"53.0559","REF_FRAME":"TEME","SEMIMAJOR_AXIS":"6925.301","APOAPSIS":"548.151","LAUNCH_DATE":"2020-08-07","GP_ID":"203914023","MEAN_MOTION_DOT":"0.00001851","PERIAPSIS":"546.180","SITE":"AFETR","OBJECT_TYPE":"PAYLOAD","MEAN_MOTION":"15.06415533","ELEMENT_SET_NO":"999","TIME_SYSTEM":"UTC","RCS_SIZE":"LARGE","NORAD_CAT_ID":"46048","REV_AT_EPOCH":"9890","FILE":"3452581","MEAN_ELEMENT_THEORY":"SGP4","CENTER_NAME":"EARTH"},{"MEAN_MOTION":"15.06402685","ELEMENT_SET_NO":"999","SITE":"AFETR","OBJECT_TYPE":"PAYLOAD","MEAN_MOTION_DOT":"0.00002920","PERIAPSIS":"546.127","GP_ID":"203840907","SEMIMAJOR_AXIS":"6925.340","REF_FRAME":"TEME","APOAPSIS":"548.284","LAUNCH_DATE":"2020-08-07","CENTER_NAME":"EARTH","FILE":"3451498","MEAN_ELEMENT_THEORY":"SGP4","REV_AT_EPOCH":"9881","RCS_SIZE":"LARGE","TIME_SYSTEM":"UTC","NORAD_CAT_ID":"46049","ECCENTRICITY":"0.00015570","EPOCH":"2022-05-18T12:02:11.930208","RA_OF_ASC_NODE":"241.9119","ARG_OF_PERICENTER":"62.4315","MEAN_MOTION_DDOT":"0.0000000000000","TLE_LINE2":"2 46049  53.0542 241.9119 0001557  62.4315 297.6832 15.06402685 98810","OBJECT_NAME":"STARLINK-1530","DECAY_DATE":null,"OBJECT_ID":"2020-055Y","CLASSIFICATION_TYPE":"U","INCLINATION":"53.0542","BSTAR":"0.00021482000000","EPHEMERIS_TYPE":"0","TLE_LINE1":"1 46049U 20055Y   22138.50152697  .00002920  00000-0  21482-3 0  9999","PERIOD":"95.592","COUNTRY_CODE":"US","MEAN_ANOMALY":"297.6832"}];
